[{"OBJECT_NAME":"STARLINK-4420","OBJECT_ID":"2022-105G","EPOCH":"2026-03-09T16:08:00.093120","MEAN_MOTION":15.05644598,"ECCENTRICITY":0.00020924,"INCLINATION":97.6024,"RA_OF_ASC_NODE":311.1617,"ARG_OF_PERICENTER":91.2741,"MEAN_ANOMALY":268.8726,"EPHEMERIS_TYPE":0,"CLASSIFICATION_TYPE":"U","NORAD_CAT_ID":53654,"ELEMENT_SET_NO":999,"REV_AT_EPOCH":19329,"BSTAR":3.3005245e-5,"MEAN_MOTION_DOT":4.15e-6,"MEAN_MOTION_DDOT":0},{"OBJECT_NAME":"COSMOS 2251 DEB","OBJECT_ID":"1993-036BYJ","EPOCH":"2026-02-27T08:25:05.077344","MEAN_MOTION":15.02778291,"ECCENTRICITY":0.0017194,"INCLINATION":74.0208,"RA_OF_ASC_NODE":84.7822,"ARG_OF_PERICENTER":181.9976,"MEAN_ANOMALY":194.0424,"EPHEMERIS_TYPE":0,"CLASSIFICATION_TYPE":"U","NORAD_CAT_ID":47116,"ELEMENT_SET_NO":999,"REV_AT_EPOCH":60660,"BSTAR":0.0017596726,"MEAN_MOTION_DOT":0.00023658,"MEAN_MOTION_DDOT":0}]
